ASTROCAST-0401          
1 55110U 23001DF  26068.71172895  .00009750  00000+0  37868-3 0  9995
2 55110  97.5547 160.5206 0008142 188.4231 171.6872 15.26258462176022
STARLINK-32586          
1 61975U 24210S   26068.32436363  .00036536  00000+0  13301-2 0  9991
2 61975  43.0023 181.9245 0002723 285.0175  75.0375 15.27591735 74827
